METOP-C                 
1 43689U 18087A   26088.17804210  .00000138  00000+0  82705-4 0  9998
2 43689  98.6724 149.2164 0001957  73.2484 286.8908 14.21503381383468
GEO-KOMPSAT-2A          
1 43823U 18100A   26087.99797778 -.00000363  00000+0  00000+0 0  9997
2 43823   0.0548  36.4573 0001649  15.2450 262.2377  1.00270214 26828
METEOR-M2 2             
1 44387U 19038A   26088.23363774  .00000343  00000+0  16827-3 0  9992
2 44387  98.9111  74.3582 0000294 197.1278 162.9891 14.24341960349912
ARKTIKA-M 1             
1 47719U 21016A   26086.24697042 -.00000098  00000+0  00000+0 0  9990
2 47719  63.2179  69.3783 7253959 269.5617  15.0995  2.00616454 37142
FENGYUN 3E              
1 49008U 21062A   26088.15104887 -.00000038  00000+0  29904-5 0  9990
2 49008  98.7520  92.4485 0001338   3.4737 356.6448 14.19895712245223
GOES 18                 
1 51850U 22021A   26088.00322461  .00000077  00000+0  00000+0 0  9990
2 51850   0.0499  29.1378 0000456  26.3797 355.0404  1.00272466  5781
NOAA 21 (JPSS-2)        
1 54234U 22150A   26088.17579030  .00000101  00000+0  68655-4 0  9999
2 54234  98.7576  28.2210 0002751  72.6688 287.4789 14.19557313175196
METEOSAT-12 (MTG-I1)    
1 54743U 22170C   26088.18644705 -.00000026  00000+0  00000+0 0  9991
2 54743   0.7321  25.5075 0001843 290.4834 297.3646  1.00272867 12179
TIANMU-1 03             
1 55973U 23039A   26088.18560003  .00023719  00000+0  50592-3 0  9998
2 55973  97.5195 259.1767 0003399  48.0090 312.1448 15.44893164168473
TIANMU-1 04             
1 55974U 23039B   26088.20372770  .00026830  00000+0  56324-3 0  9990
2 55974  97.5127 258.3505 0003912  39.9057 320.2479 15.45336120168483
TIANMU-1 05             
1 55975U 23039C   26088.16294699  .00020273  00000+0  43380-3 0  9992
2 55975  97.5173 258.7974 0003631  67.3815 292.7817 15.44829779168456
TIANMU-1 06             
1 55976U 23039D   26088.20321064  .00024107  00000+0  50624-3 0  9994
2 55976  97.5183 259.3974 0003803  59.9719 300.1906 15.45348033168482
FENGYUN 3G              
1 56232U 23055A   26088.13563054  .00036723  00000+0  58113-3 0  9995
2 56232  49.9937  38.8061 0004743  15.8838 344.2277 15.53023731167562
METEOR-M2 3             
1 57166U 23091A   26088.21008341  .00000012  00000+0  24072-4 0  9994
2 57166  98.6172 144.7933 0004762  54.6253 305.5370 14.24039656143130
TIANMU-1 07             
1 57399U 23101A   26088.15046988  .00008479  00000+0  30119-3 0  9999
2 57399  97.2690 140.6623 0004645  94.5732 265.6040 15.29256322149418
TIANMU-1 08             
1 57400U 23101B   26085.76300744  .00000258  00000+0  11605-4 0  9996
2 57400  97.2683 138.1078 0005815  81.6822 278.5077 15.29307245149049
TIANMU-1 09             
1 57401U 23101C   26088.16731826  .00008780  00000+0  31158-3 0  9995
2 57401  97.2639 139.9191 0005114  93.7079 266.4747 15.29273861149413
