[{"OBJECT_NAME":"METOP-C","OBJECT_ID":"2018-087A","EPOCH":"2026-03-29T04:16:22.837440","MEAN_MOTION":14.21503381,"ECCENTRICITY":0.0001957,"INCLINATION":98.6724,"RA_OF_ASC_NODE":149.2164,"ARG_OF_PERICENTER":73.2484,"MEAN_ANOMALY":286.8908,"EPHEMERIS_TYPE":0,"CLASSIFICATION_TYPE":"U","NORAD_CAT_ID":43689,"ELEMENT_SET_NO":999,"REV_AT_EPOCH":38346,"BSTAR":8.2705e-5,"MEAN_MOTION_DOT":1.38e-6,"MEAN_MOTION_DDOT":0},{"OBJECT_NAME":"GEO-KOMPSAT-2A","OBJECT_ID":"2018-100A","EPOCH":"2026-03-28T23:57:05.280192","MEAN_MOTION":1.00270214,"ECCENTRICITY":0.0001649,"INCLINATION":0.0548,"RA_OF_ASC_NODE":36.4573,"ARG_OF_PERICENTER":15.245,"MEAN_ANOMALY":262.2377,"EPHEMERIS_TYPE":0,"CLASSIFICATION_TYPE":"U","NORAD_CAT_ID":43823,"ELEMENT_SET_NO":999,"REV_AT_EPOCH":2682,"BSTAR":0,"MEAN_MOTION_DOT":-3.63e-6,"MEAN_MOTION_DDOT":0},{"OBJECT_NAME":"METEOR-M2 2","OBJECT_ID":"2019-038A","EPOCH":"2026-03-29T05:36:26.300736","MEAN_MOTION":14.2434196,"ECCENTRICITY":2.94e-5,"INCLINATION":98.9111,"RA_OF_ASC_NODE":74.3582,"ARG_OF_PERICENTER":197.1278,"MEAN_ANOMALY":162.9891,"EPHEMERIS_TYPE":0,"CLASSIFICATION_TYPE":"U","NORAD_CAT_ID":44387,"ELEMENT_SET_NO":999,"REV_AT_EPOCH":34991,"BSTAR":0.00016827,"MEAN_MOTION_DOT":3.43e-6,"MEAN_MOTION_DDOT":0},{"OBJECT_NAME":"ARKTIKA-M 1","OBJECT_ID":"2021-016A","EPOCH":"2026-03-27T05:55:38.244288","MEAN_MOTION":2.00616454,"ECCENTRICITY":0.7253959,"INCLINATION":63.2179,"RA_OF_ASC_NODE":69.3783,"ARG_OF_PERICENTER":269.5617,"MEAN_ANOMALY":15.0995,"EPHEMERIS_TYPE":0,"CLASSIFICATION_TYPE":"U","NORAD_CAT_ID":47719,"ELEMENT_SET_NO":999,"REV_AT_EPOCH":3714,"BSTAR":0,"MEAN_MOTION_DOT":-9.8e-7,"MEAN_MOTION_DDOT":0},{"OBJECT_NAME":"FENGYUN 3E","OBJECT_ID":"2021-062A","EPOCH":"2026-03-29T03:37:30.622368","MEAN_MOTION":14.19895712,"ECCENTRICITY":0.0001338,"INCLINATION":98.752,"RA_OF_ASC_NODE":92.4485,"ARG_OF_PERICENTER":3.4737,"MEAN_ANOMALY":356.6448,"EPHEMERIS_TYPE":0,"CLASSIFICATION_TYPE":"U","NORAD_CAT_ID":49008,"ELEMENT_SET_NO":999,"REV_AT_EPOCH":24522,"BSTAR":2.9904e-6,"MEAN_MOTION_DOT":-3.8e-7,"MEAN_MOTION_DDOT":0},{"OBJECT_NAME":"GOES 18","OBJECT_ID":"2022-021A","EPOCH":"2026-03-29T00:04:38.606304","MEAN_MOTION":1.00272466,"ECCENTRICITY":4.56e-5,"INCLINATION":0.0499,"RA_OF_ASC_NODE":29.1378,"ARG_OF_PERICENTER":26.3797,"MEAN_ANOMALY":355.0404,"EPHEMERIS_TYPE":0,"CLASSIFICATION_TYPE":"U","NORAD_CAT_ID":51850,"ELEMENT_SET_NO":999,"REV_AT_EPOCH":578,"BSTAR":0,"MEAN_MOTION_DOT":7.7e-7,"MEAN_MOTION_DDOT":0},{"OBJECT_NAME":"NOAA 21 (JPSS-2)","OBJECT_ID":"2022-150A","EPOCH":"2026-03-29T04:13:08.281920","MEAN_MOTION":14.19557313,"ECCENTRICITY":0.0002751,"INCLINATION":98.7576,"RA_OF_ASC_NODE":28.221,"ARG_OF_PERICENTER":72.6688,"MEAN_ANOMALY":287.4789,"EPHEMERIS_TYPE":0,"CLASSIFICATION_TYPE":"U","NORAD_CAT_ID":54234,"ELEMENT_SET_NO":999,"REV_AT_EPOCH":17519,"BSTAR":6.8655e-5,"MEAN_MOTION_DOT":1.01e-6,"MEAN_MOTION_DDOT":0},{"OBJECT_NAME":"METEOSAT-12 (MTG-I1)","OBJECT_ID":"2022-170C","EPOCH":"2026-03-29T04:28:29.025120","MEAN_MOTION":1.00272867,"ECCENTRICITY":0.0001843,"INCLINATION":0.7321,"RA_OF_ASC_NODE":25.5075,"ARG_OF_PERICENTER":290.4834,"MEAN_ANOMALY":297.3646,"EPHEMERIS_TYPE":0,"CLASSIFICATION_TYPE":"U","NORAD_CAT_ID":54743,"ELEMENT_SET_NO":999,"REV_AT_EPOCH":1217,"BSTAR":0,"MEAN_MOTION_DOT":-2.6e-7,"MEAN_MOTION_DDOT":0},{"OBJECT_NAME":"TIANMU-1 03","OBJECT_ID":"2023-039A","EPOCH":"2026-03-29T04:27:15.842592","MEAN_MOTION":15.44893164,"ECCENTRICITY":0.0003399,"INCLINATION":97.5195,"RA_OF_ASC_NODE":259.1767,"ARG_OF_PERICENTER":48.009,"MEAN_ANOMALY":312.1448,"EPHEMERIS_TYPE":0,"CLASSIFICATION_TYPE":"U","NORAD_CAT_ID":55973,"ELEMENT_SET_NO":999,"REV_AT_EPOCH":16847,"BSTAR":0.00050592,"MEAN_MOTION_DOT":0.00023719,"MEAN_MOTION_DDOT":0},{"OBJECT_NAME":"TIANMU-1 04","OBJECT_ID":"2023-039B","EPOCH":"2026-03-29T04:53:22.073280","MEAN_MOTION":15.4533612,"ECCENTRICITY":0.0003912,"INCLINATION":97.5127,"RA_OF_ASC_NODE":258.3505,"ARG_OF_PERICENTER":39.9057,"MEAN_ANOMALY":320.2479,"EPHEMERIS_TYPE":0,"CLASSIFICATION_TYPE":"U","NORAD_CAT_ID":55974,"ELEMENT_SET_NO":999,"REV_AT_EPOCH":16848,"BSTAR":0.00056324,"MEAN_MOTION_DOT":0.0002683,"MEAN_MOTION_DDOT":0},{"OBJECT_NAME":"TIANMU-1 05","OBJECT_ID":"2023-039C","EPOCH":"2026-03-29T03:54:38.619936","MEAN_MOTION":15.44829779,"ECCENTRICITY":0.0003631,"INCLINATION":97.5173,"RA_OF_ASC_NODE":258.7974,"ARG_OF_PERICENTER":67.3815,"MEAN_ANOMALY":292.7817,"EPHEMERIS_TYPE":0,"CLASSIFICATION_TYPE":"U","NORAD_CAT_ID":55975,"ELEMENT_SET_NO":999,"REV_AT_EPOCH":16845,"BSTAR":0.0004338,"MEAN_MOTION_DOT":0.00020273,"MEAN_MOTION_DDOT":0},{"OBJECT_NAME":"TIANMU-1 06","OBJECT_ID":"2023-039D","EPOCH":"2026-03-29T04:52:37.399296","MEAN_MOTION":15.45348033,"ECCENTRICITY":0.0003803,"INCLINATION":97.5183,"RA_OF_ASC_NODE":259.3974,"ARG_OF_PERICENTER":59.9719,"MEAN_ANOMALY":300.1906,"EPHEMERIS_TYPE":0,"CLASSIFICATION_TYPE":"U","NORAD_CAT_ID":55976,"ELEMENT_SET_NO":999,"REV_AT_EPOCH":16848,"BSTAR":0.00050624,"MEAN_MOTION_DOT":0.00024107,"MEAN_MOTION_DDOT":0},{"OBJECT_NAME":"FENGYUN 3G","OBJECT_ID":"2023-055A","EPOCH":"2026-03-29T03:15:18.478656","MEAN_MOTION":15.53023731,"ECCENTRICITY":0.0004743,"INCLINATION":49.9937,"RA_OF_ASC_NODE":38.8061,"ARG_OF_PERICENTER":15.8838,"MEAN_ANOMALY":344.2277,"EPHEMERIS_TYPE":0,"CLASSIFICATION_TYPE":"U","NORAD_CAT_ID":56232,"ELEMENT_SET_NO":999,"REV_AT_EPOCH":16756,"BSTAR":0.00058113,"MEAN_MOTION_DOT":0.00036723,"MEAN_MOTION_DDOT":0},{"OBJECT_NAME":"METEOR-M2 3","OBJECT_ID":"2023-091A","EPOCH":"2026-03-29T05:02:31.206624","MEAN_MOTION":14.24039656,"ECCENTRICITY":0.0004762,"INCLINATION":98.6172,"RA_OF_ASC_NODE":144.7933,"ARG_OF_PERICENTER":54.6253,"MEAN_ANOMALY":305.537,"EPHEMERIS_TYPE":0,"CLASSIFICATION_TYPE":"U","NORAD_CAT_ID":57166,"ELEMENT_SET_NO":999,"REV_AT_EPOCH":14313,"BSTAR":2.4072e-5,"MEAN_MOTION_DOT":1.2e-7,"MEAN_MOTION_DDOT":0},{"OBJECT_NAME":"TIANMU-1 07","OBJECT_ID":"2023-101A","EPOCH":"2026-03-29T03:36:40.597632","MEAN_MOTION":15.29256322,"ECCENTRICITY":0.0004645,"INCLINATION":97.269,"RA_OF_ASC_NODE":140.6623,"ARG_OF_PERICENTER":94.5732,"MEAN_ANOMALY":265.604,"EPHEMERIS_TYPE":0,"CLASSIFICATION_TYPE":"U","NORAD_CAT_ID":57399,"ELEMENT_SET_NO":999,"REV_AT_EPOCH":14941,"BSTAR":0.00030119,"MEAN_MOTION_DOT":8.479e-5,"MEAN_MOTION_DDOT":0},{"OBJECT_NAME":"TIANMU-1 08","OBJECT_ID":"2023-101B","EPOCH":"2026-03-26T18:18:43.842816","MEAN_MOTION":15.29307245,"ECCENTRICITY":0.00058156,"INCLINATION":97.2683,"RA_OF_ASC_NODE":138.1078,"ARG_OF_PERICENTER":81.6822,"MEAN_ANOMALY":278.5077,"EPHEMERIS_TYPE":0,"CLASSIFICATION_TYPE":"U","NORAD_CAT_ID":57400,"ELEMENT_SET_NO":999,"REV_AT_EPOCH":14904,"BSTAR":1.1604734e-5,"MEAN_MOTION_DOT":2.58e-6,"MEAN_MOTION_DDOT":0},{"OBJECT_NAME":"TIANMU-1 09","OBJECT_ID":"2023-101C","EPOCH":"2026-03-29T04:00:56.297664","MEAN_MOTION":15.29273861,"ECCENTRICITY":0.0005114,"INCLINATION":97.2639,"RA_OF_ASC_NODE":139.9191,"ARG_OF_PERICENTER":93.7079,"MEAN_ANOMALY":266.4747,"EPHEMERIS_TYPE":0,"CLASSIFICATION_TYPE":"U","NORAD_CAT_ID":57401,"ELEMENT_SET_NO":999,"REV_AT_EPOCH":14941,"BSTAR":0.00031158,"MEAN_MOTION_DOT":8.78e-5,"MEAN_MOTION_DDOT":0}]
